{"type": "FeatureCollection", "features": [ {"type": "Feature", "properties": {"norad_id": 66762, "name": "TRANSPORTER-15 DA", "group": "last-30-days", "lat": -43.21162854841359, "lon": -121.708478003684, "alt_km": 520.5406306876857, "timestamp": "2025-12-19T16:54:42.967889+00:00", "meta": {"OBJECT_NAME": "TRANSPORTER-15 DA", "OBJECT_ID": "2025-276DA", "EPOCH": "2025-12-19T03:16:01.359840", "MEAN_MOTION": 15.17269964, "ECCENTRICITY": 0.00010143, "INCLINATION": 97.4421, "RA_OF_ASC_NODE": 64.7868, "ARG_OF_PERICENTER": 293.857, "MEAN_ANOMALY": 66.2557, "EPHEMERIS_TYPE": 0, "CLASSIFICATION_TYPE": "U", "NORAD_CAT_ID": 66762, "ELEMENT_SET_NO": 999, "REV_AT_EPOCH": 309, "BSTAR": 0.00015780813, "MEAN_MOTION_DOT": 3.075e-05, "MEAN_MOTION_DDOT": 0}, "tle": {"line1": "1 66762U 25276DA  25353.13612685  .00003075  00000+0  15781-3 0  9998", "line2": "2 66762  97.4421  64.7868 0001014 293.8570  66.2557 15.17269964  3098"}}, "geometry": {"type": "Point", "coordinates": [-121.708478003684, -43.21162854841359]}}, {"type": "Feature", "properties": {"norad_id": 66763, "name": "TRANSPORTER-15 DB", "group": "last-30-days", "lat": -52.591333637494245, "lon": -124.48837410802855, "alt_km": 519.9037924473005, "timestamp": "2025-12-19T16:54:42.967899+00:00", "meta": {"OBJECT_NAME": "TRANSPORTER-15 DB", "OBJECT_ID": "2025-276DB", "EPOCH": "2025-12-19T04:48:31.441824", "MEAN_MOTION": 15.17397632, "ECCENTRICITY": 0.00013768, "INCLINATION": 97.4424, "RA_OF_ASC_NODE": 64.8576, "ARG_OF_PERICENTER": 265.8395, "MEAN_ANOMALY": 94.2681, "EPHEMERIS_TYPE": 0, "CLASSIFICATION_TYPE": "U", "NORAD_CAT_ID": 66763, "ELEMENT_SET_NO": 999, "REV_AT_EPOCH": 310, "BSTAR": 0.00015450986, "MEAN_MOTION_DOT": 3.021e-05, "MEAN_MOTION_DDOT": 0}, "tle": {"line1": "1 66763U 25276DB  25353.20036391  .00003021  00000+0  15451-3 0  9996", "line2": "2 66763  97.4424  64.8576 0001376 265.8395  94.2681 15.17397632  3109"}}, "geometry": {"type": "Point", "coordinates": [-124.48837410802855, -52.591333637494245]}}, {"type": "Feature", "properties": {"norad_id": 66764, "name": "TRANSPORTER-15 DC", "group": "last-30-days", "lat": -72.52326484492069, "lon": -139.1717492750527, "alt_km": 519.3300262708053, "timestamp": "2025-12-19T16:54:42.967909+00:00", "meta": {"OBJECT_NAME": "TRANSPORTER-15 DC", "OBJECT_ID": "2025-276DC", "EPOCH": "2025-12-19T03:08:11.311008", "MEAN_MOTION": 15.17663008, "ECCENTRICITY": 0.00017419, "INCLINATION": 97.4417, "RA_OF_ASC_NODE": 64.7924, "ARG_OF_PERICENTER": 213.8935, "MEAN_ANOMALY": 146.2188, "EPHEMERIS_TYPE": 0, "CLASSIFICATION_TYPE": "U", "NORAD_CAT_ID": 66764, "ELEMENT_SET_NO": 999, "REV_AT_EPOCH": 309, "BSTAR": 0.00013127356, "MEAN_MOTION_DOT": 2.576e-05, "MEAN_MOTION_DDOT": 0}, "tle": {"line1": "1 66764U 25276DC  25353.13068647  .00002576  00000+0  13127-3 0  9990", "line2": "2 66764  97.4417  64.7924 0001741 213.8935 146.2188 15.17663008  3098"}}, "geometry": {"type": "Point", "coordinates": [-139.1717492750527, -72.52326484492069]}}, {"type": "Feature", "properties": {"norad_id": 66765, "name": "TRANSPORTER-15 DD", "group": "last-30-days", "lat": -47.42289337152525, "lon": 73.56697386951379, "alt_km": 517.9584876349008, "timestamp": "2025-12-19T16:54:42.967919+00:00", "meta": {"OBJECT_NAME": "TRANSPORTER-15 DD", "OBJECT_ID": "2025-276DD", "EPOCH": "2025-12-19T04:28:18.943968", "MEAN_MOTION": 15.18646137, "ECCENTRICITY": 0.00017533, "INCLINATION": 97.4435, "RA_OF_ASC_NODE": 64.8761, "ARG_OF_PERICENTER": 122.6282, "MEAN_ANOMALY": 237.5122, "EPHEMERIS_TYPE": 0, "CLASSIFICATION_TYPE": "U", "NORAD_CAT_ID": 66765, "ELEMENT_SET_NO": 999, "REV_AT_EPOCH": 310, "BSTAR": 0.00039879585, "MEAN_MOTION_DOT": 8.196e-05, "MEAN_MOTION_DDOT": 0}, "tle": {"line1": "1 66765U 25276DD  25353.18633037  .00008196  00000+0  39880-3 0  9995", "line2": "2 66765  97.4435  64.8761 0001753 122.6282 237.5122 15.18646137  3103"}}, "geometry": {"type": "Point", "coordinates": [73.56697386951379, -47.42289337152525]}}, {"type": "Feature", "properties": {"norad_id": 66766, "name": "TRANSPORTER-15 DE", "group": "last-30-days", "lat": -58.67906564094943, "lon": 77.76301701744137, "alt_km": 519.1495005747929, "timestamp": "2025-12-19T16:54:42.967929+00:00", "meta": {"OBJECT_NAME": "TRANSPORTER-15 DE", "OBJECT_ID": "2025-276DE", "EPOCH": "2025-12-19T04:31:13.244736", "MEAN_MOTION": 15.18362733, "ECCENTRICITY": 0.00020381, "INCLINATION": 97.4376, "RA_OF_ASC_NODE": 64.8585, "ARG_OF_PERICENTER": 93.0021, "MEAN_ANOMALY": 267.1446, "EPHEMERIS_TYPE": 0, "CLASSIFICATION_TYPE": "U", "NORAD_CAT_ID": 66766, "ELEMENT_SET_NO": 999, "REV_AT_EPOCH": 310, "BSTAR": 0.00023489834, "MEAN_MOTION_DOT": 4.759e-05, "MEAN_MOTION_DDOT": 0}, "tle": {"line1": "1 66766U 25276DE  25353.18834774  .00004759  00000+0  23490-3 0  9998", "line2": "2 66766  97.4376  64.8585 0002038  93.0021 267.1446 15.18362733  3106"}}, "geometry": {"type": "Point", "coordinates": [77.76301701744137, -58.67906564094943]}}, {"type": "Feature", "properties": {"norad_id": 66767, "name": "TRANSPORTER-15 DF", "group": "last-30-days", "lat": -61.943558859929155, "lon": 79.55623077214452, "alt_km": 519.528971201642, "timestamp": "2025-12-19T16:54:42.967939+00:00", "meta": {"OBJECT_NAME": "TRANSPORTER-15 DF", "OBJECT_ID": "2025-276DF", "EPOCH": "2025-12-19T04:32:03.974496", "MEAN_MOTION": 15.18264626, "ECCENTRICITY": 0.00020198, "INCLINATION": 97.4383, "RA_OF_ASC_NODE": 64.8596, "ARG_OF_PERICENTER": 92.6919, "MEAN_ANOMALY": 267.4546, "EPHEMERIS_TYPE": 0, "CLASSIFICATION_TYPE": "U", "NORAD_CAT_ID": 66767, "ELEMENT_SET_NO": 999, "REV_AT_EPOCH": 310, "BSTAR": 0.00016729292, "MEAN_MOTION_DOT": 3.36e-05, "MEAN_MOTION_DDOT": 0}, "tle": {"line1": "1 66767U 25276DF  25353.18893489  .00003360  00000+0  16729-3 0  9991", "line2": "2 66767  97.4383  64.8596 0002019  92.6919 267.4546 15.18264626  3103"}}, "geometry": {"type": "Point", "coordinates": [79.55623077214452, -61.943558859929155]}}, {"type": "Feature", "properties": {"norad_id": 66768, "name": "TRANSPORTER-15 DG", "group": "last-30-days", "lat": -53.016783137458695, "lon": 75.35617327638184, "alt_km": 518.5993391151114, "timestamp": "2025-12-19T16:54:42.967952+00:00", "meta": {"OBJECT_NAME": "TRANSPORTER-15 DG", "OBJECT_ID": "2025-276DG", "EPOCH": "2025-12-19T04:29:43.906272", "MEAN_MOTION": 15.18463037, "ECCENTRICITY": 0.00022922, "INCLINATION": 97.437, "RA_OF_ASC_NODE": 64.8589, "ARG_OF_PERICENTER": 82.5284, "MEAN_ANOMALY": 277.6211, "EPHEMERIS_TYPE": 0, "CLASSIFICATION_TYPE": "U", "NORAD_CAT_ID": 66768, "ELEMENT_SET_NO": 999, "REV_AT_EPOCH": 310, "BSTAR": 0.00028846564, "MEAN_MOTION_DOT": 5.877e-05, "MEAN_MOTION_DDOT": 0}, "tle": {"line1": "1 66768U 25276DG  25353.18731373  .00005877  00000+0  28847-3 0  9994", "line2": "2 66768  97.4370  64.8589 0002292  82.5284 277.6211 15.18463037  3107"}}, "geometry": {"type": "Point", "coordinates": [75.35617327638184, -53.016783137458695]}}, {"type": "Feature", "properties": {"norad_id": 66769, "name": "TRANSPORTER-15 DH", "group": "last-30-days", "lat": -56.54976428163907, "lon": 76.79474864031312, "alt_km": 519.5882279386251, "timestamp": "2025-12-19T16:54:42.967964+00:00", "meta": {"OBJECT_NAME": "TRANSPORTER-15 DH", "OBJECT_ID": "2025-276DH", "EPOCH": "2025-12-19T04:30:38.670048", "MEAN_MOTION": 15.18364272, "ECCENTRICITY": 0.00025368, "INCLINATION": 97.4431, "RA_OF_ASC_NODE": 64.8727, "ARG_OF_PERICENTER": 112.3107, "MEAN_ANOMALY": 247.8397, "EPHEMERIS_TYPE": 0, "CLASSIFICATION_TYPE": "U", "NORAD_CAT_ID": 66769, "ELEMENT_SET_NO": 999, "REV_AT_EPOCH": 310, "BSTAR": 0.00021281988, "MEAN_MOTION_DOT": 4.305e-05, "MEAN_MOTION_DDOT": 0}, "tle": {"line1": "1 66769U 25276DH  25353.18794757  .00004305  00000+0  21282-3 0  9991", "line2": "2 66769  97.4431  64.8727 0002536 112.3107 247.8397 15.18364272  3102"}}, "geometry": {"type": "Point", "coordinates": [76.79474864031312, -56.54976428163907]}}, {"type": "Feature", "properties": {"norad_id": 66770, "name": "TRANSPORTER-15 DJ", "group": "last-30-days", "lat": -54.67379236103699, "lon": 76.02443290237309, "alt_km": 519.8675218586632, "timestamp": "2025-12-19T16:54:42.967977+00:00", "meta": {"OBJECT_NAME": "TRANSPORTER-15 DJ", "OBJECT_ID": "2025-276DJ", "EPOCH": "2025-12-19T04:30:08.269344", "MEAN_MOTION": 15.1836577, "ECCENTRICITY": 0.00029503, "INCLINATION": 97.446, "RA_OF_ASC_NODE": 64.8814, "ARG_OF_PERICENTER": 130.9124, "MEAN_ANOMALY": 229.2366, "EPHEMERIS_TYPE": 0, "CLASSIFICATION_TYPE": "U", "NORAD_CAT_ID": 66770, "ELEMENT_SET_NO": 999, "REV_AT_EPOCH": 310, "BSTAR": 0.00011972706, "MEAN_MOTION_DOT": 2.392e-05, "MEAN_MOTION_DDOT": 0}, "tle": {"line1": "1 66770U 25276DJ  25353.18759571  .00002392  00000+0  11973-3 0  9998", "line2": "2 66770  97.4460  64.8814 0002950 130.9124 229.2366 15.18365770  3102"}}, "geometry": {"type": "Point", "coordinates": [76.02443290237309, -54.67379236103699]}}, {"type": "Feature", "properties": {"norad_id": 66771, "name": "TRANSPORTER-15 DK", "group": "last-30-days", "lat": -53.16692963733683, "lon": 75.44470184717706, "alt_km": 519.5510829965042, "timestamp": "2025-12-19T16:54:42.967987+00:00", "meta": {"OBJECT_NAME": "TRANSPORTER-15 DK", "OBJECT_ID": "2025-276DK", "EPOCH": "2025-12-19T04:29:45.406176", "MEAN_MOTION": 15.18421985, "ECCENTRICITY": 0.00028082, "INCLINATION": 97.4456, "RA_OF_ASC_NODE": 64.8798, "ARG_OF_PERICENTER": 121.6608, "MEAN_ANOMALY": 238.49, "EPHEMERIS_TYPE": 0, "CLASSIFICATION_TYPE": "U", "NORAD_CAT_ID": 66771, "ELEMENT_SET_NO": 999, "REV_AT_EPOCH": 310, "BSTAR": 0.00022235439, "MEAN_MOTION_DOT": 4.509e-05, "MEAN_MOTION_DDOT": 0}, "tle": {"line1": "1 66771U 25276DK  25353.18733109  .00004509  00000+0  22235-3 0  9993", "line2": "2 66771  97.4456  64.8798 0002808 121.6608 238.4900 15.18421985  3102"}}, "geometry": {"type": "Point", "coordinates": [75.44470184717706, -53.16692963733683]}}]}